OBJECT_NAME,OBJECT_ID,EPOCH,MEAN_MOTION,ECCENTRICITY,INCLINATION,RA_OF_ASC_NODE,ARG_OF_PERICENTER,MEAN_ANOMALY,EPHEMERIS_TYPE,CLASSIFICATION_TYPE,NORAD_CAT_ID,ELEMENT_SET_NO,REV_AT_EPOCH,BSTAR,MEAN_MOTION_DOT,MEAN_MOTION_DDOT
ONEWEB-0395,2021-132G,2026-07-09T18:01:16.917600,13.11415119,.0002015,87.8874,16.5736,84.9818,275.1539,0,U,50475,999,21867,.62549E-3,.234E-5,0
ONEWEB-0396,2021-132H,2026-07-09T15:02:26.329632,13.18686308,.0001756,87.9195,330.9924,94.3542,265.7791,0,U,50476,999,22459,-.40584E-4,-.3E-7,0
ONEWEB-0397,2021-132J,2026-07-09T15:24:17.190432,13.18687139,.0001579,87.9199,330.9892,95.4343,264.6970,0,U,50477,999,22457,.11023E-4,.17E-6,0
ONEWEB-0398,2021-132K,2026-07-08T22:56:14.158752,13.11389929,.00024543,87.8884,16.7242,90.1716,269.9693,0,U,50478,999,21846,.17141629E-1,.609E-4,0
ONEWEB-0399,2021-132L,2026-07-08T22:36:40.955616,13.11417914,.00016843,87.8889,16.7379,74.2709,285.8605,0,U,50479,999,21845,-.99544842E-3,-.34E-5,0
ONEWEB-0400,2021-132M,2026-07-09T14:52:42.149856,13.18684526,.0002018,87.9192,330.9835,98.1142,262.0219,0,U,50480,999,22456,.17583E-3,.82E-6,0
ONEWEB-0401,2021-132N,2026-07-08T21:45:39.813120,13.18685519,.0001683,87.9185,331.1236,105.2515,254.8804,0,U,50481,999,22447,.35769651E-4,.27E-6,0
ONEWEB-0402,2021-132P,2026-07-09T15:04:51.485088,13.18687268,.0001446,87.9189,330.9681,107.0856,253.0435,0,U,50482,999,22459,-.21381E-4,.4E-7,0
ONEWEB-0403,2021-132Q,2026-07-09T15:41:17.321280,13.18686511,.0001833,87.9189,330.9877,92.5840,267.5502,0,U,50483,999,22455,.14677E-5,.13E-6,0
ONEWEB-0404,2021-132R,2026-07-09T18:18:21.429792,13.11414368,.0001952,87.8888,16.5725,79.3745,280.7603,0,U,50484,999,21865,-.73908E-3,-.249E-5,0
ONEWEB-0405,2021-132S,2026-07-09T16:00:41.815296,13.18683913,.0002335,87.9190,330.9705,100.1253,260.0143,0,U,50485,999,22495,.1494E-3,.72E-6,0
ONEWEB-0406,2021-132T,2026-07-09T15:48:33.988608,13.18686406,.0001879,87.9186,330.9870,81.1920,278.9425,0,U,50486,999,22458,.19402E-4,.21E-6,0
ONEWEB-0407,2021-132U,2026-07-09T15:38:50.682336,13.18688005,.000188,87.9192,330.9814,103.9526,256.1815,0,U,50487,999,22452,.48734E-4,.32E-6,0
ONEWEB-0409,2021-132V,2026-07-08T22:07:22.802016,13.11414776,.00020317,87.8883,16.7277,83.2345,276.9014,0,U,50488,999,21843,-.84063252E-3,-.285E-5,0
ONEWEB-0412,2021-132W,2026-07-09T15:21:51.556320,13.18686442,.0001589,87.9188,330.9915,102.0679,258.0631,0,U,50489,999,22461,.43614E-4,.3E-6,0
ONEWEB-0413,2021-132X,2026-07-09T15:29:08.742912,13.18687292,.0001709,87.9178,330.9873,106.0038,254.1282,0,U,50490,999,22455,-.18049E-4,.6E-7,0
ONEWEB-0414,2021-132Y,2026-07-09T15:07:17.462208,13.18686828,.0001723,87.9191,330.9741,97.6650,262.4677,0,U,50491,999,22458,.12092E-3,.61E-6,0
ONEWEB-0417,2021-132Z,2026-07-09T15:19:25.633632,13.18687140,.0001903,87.9182,330.9908,89.6940,270.4410,0,U,50492,999,22456,.10665E-3,.55E-6,0
ONEWEB-0418,2021-132AA,2026-07-09T15:33:47.678400,13.18685871,.0001947,87.9185,330.9896,89.3039,270.8316,0,U,50493,999,22462,.52943E-4,.34E-6,0
ONEWEB-0419,2021-132AB,2026-07-09T16:01:04.237824,13.18666140,.000215,87.9189,330.9864,94.6508,265.4870,0,U,50494,999,22454,.1155E-3,.58E-6,0
ONEWEB-0420,2021-132AC,2026-07-09T15:09:41.942880,13.18687706,.0001918,87.9181,330.9939,104.0707,256.0638,0,U,50495,999,22453,.12597E-3,.63E-6,0
ONEWEB-0421,2021-132AD,2026-07-09T15:00:00.819936,13.18608134,.0001306,87.9186,330.9935,109.0068,251.1206,0,U,50496,999,22457,.36815E-1,.14534E-3,0
ONEWEB-0424,2021-132AE,2026-07-09T15:53:25.780416,13.18622331,.0002488,87.9186,330.9854,105.2254,254.9154,0,U,50497,999,22460,.3076E-1,.12145E-3,0
ONEWEB-0426,2021-132AF,2026-07-09T14:53:56.382144,13.18685785,.0001501,87.9187,330.9851,74.1664,285.9633,0,U,50498,999,22454,.97901E-5,.17E-6,0
ONEWEB-0427,2021-132AG,2026-07-09T15:51:00.101376,13.18686498,.0001876,87.9191,330.9658,91.1210,269.0137,0,U,50499,999,22457,.16107E-3,.76E-6,0
ONEWEB-0429,2021-132AH,2026-07-08T21:18:56.426976,13.18686812,.00018236,87.9179,331.1426,101.4094,258.7244,0,U,50500,999,22444,.95420493E-4,.51E-6,0
ONEWEB-0430,2021-132AJ,2026-07-09T15:14:34.120896,13.18688379,.0001967,87.9181,330.9923,104.0217,256.1134,0,U,50501,999,22458,-.21156E-4,.5E-7,0
ONEWEB-0432,2021-132AK,2026-07-08T22:26:44.642688,13.18686038,.00023053,87.9190,331.1175,100.3148,259.8244,0,U,50502,999,22444,-.40780959E-4,-.3E-7,0
ONEWEB-0440,2021-132AL,2026-07-09T15:43:42.430944,13.18686519,.0001593,87.9190,330.9859,104.6381,255.4927,0,U,50503,999,22453,-.38408E-4,-.2E-7,0
ONEWEB-0450,2021-132AM,2026-07-09T15:34:11.872128,13.18686595,.000191,87.9180,330.9902,103.2252,256.9093,0,U,50504,999,22456,-.72286E-4,-.16E-6,0
