ONEWEB-0395             
1 50475U 21132G   26190.75089025  .00000234  00000+0  62549-3 0  9991
2 50475  87.8874  16.5736 0002015  84.9818 275.1539 13.11415119218672
ONEWEB-0396             
1 50476U 21132H   26190.62669363 -.00000003  00000+0 -40584-4 0  9999
2 50476  87.9195 330.9924 0001756  94.3542 265.7791 13.18686308224592
ONEWEB-0397             
1 50477U 21132J   26190.64186563  .00000017  00000+0  11023-4 0  9997
2 50477  87.9199 330.9892 0001579  95.4343 264.6970 13.18687139224573
ONEWEB-0398             
1 50478U 21132K   26189.95571943  .00006090  00000+0  17142-1 0  9992
2 50478  87.8884  16.7242 0002454  90.1716 269.9693 13.11389929218461
ONEWEB-0399             
1 50479U 21132L   26189.94214069 -.00000340  00000+0 -99545-3 0  9998
2 50479  87.8889  16.7379 0001684  74.2709 285.8605 13.11417914218452
ONEWEB-0400             
1 50480U 21132M   26190.61993229  .00000082  00000+0  17583-3 0  9991
2 50480  87.9192 330.9835 0002018  98.1142 262.0219 13.18684526224567
ONEWEB-0401             
1 50481U 21132N   26189.90671080  .00000027  00000+0  35770-4 0  9998
2 50481  87.9185 331.1236 0001683 105.2515 254.8804 13.18685519224471
ONEWEB-0402             
1 50482U 21132P   26190.62837367  .00000004  00000+0 -21381-4 0  9991
2 50482  87.9189 330.9681 0001446 107.0856 253.0435 13.18687268224599
ONEWEB-0403             
1 50483U 21132Q   26190.65367270  .00000013  00000+0  14677-5 0  9996
2 50483  87.9189 330.9877 0001833  92.5840 267.5502 13.18686511224559
ONEWEB-0404             
1 50484U 21132R   26190.76274803 -.00000249  00000+0 -73908-3 0  9991
2 50484  87.8888  16.5725 0001952  79.3745 280.7603 13.11414368218658
ONEWEB-0405             
1 50485U 21132S   26190.66715064  .00000072  00000+0  14940-3 0  9993
2 50485  87.9190 330.9705 0002335 100.1253 260.0143 13.18683913224951
ONEWEB-0406             
1 50486U 21132T   26190.65872672  .00000021  00000+0  19402-4 0  9995
2 50486  87.9186 330.9870 0001879  81.1920 278.9425 13.18686406224581
ONEWEB-0407             
1 50487U 21132U   26190.65197549  .00000032  00000+0  48734-4 0  9991
2 50487  87.9192 330.9814 0001880 103.9526 256.1815 13.18688005224526
ONEWEB-0409             
1 50488U 21132V   26189.92179169 -.00000285  00000+0 -84063-3 0  9994
2 50488  87.8883  16.7277 0002031  83.2345 276.9014 13.11414776218432
ONEWEB-0412             
1 50489U 21132W   26190.64018005  .00000030  00000+0  43614-4 0  9991
2 50489  87.9188 330.9915 0001589 102.0679 258.0631 13.18686442224610
ONEWEB-0413             
1 50490U 21132X   26190.64524008  .00000006  00000+0 -18049-4 0  9996
2 50490  87.9178 330.9873 0001709 106.0038 254.1282 13.18687292224557
ONEWEB-0414             
1 50491U 21132Y   26190.63006322  .00000061  00000+0  12092-3 0  9991
2 50491  87.9191 330.9741 0001723  97.6650 262.4677 13.18686828224585
ONEWEB-0417             
1 50492U 21132Z   26190.63849113  .00000055  00000+0  10665-3 0  9992
2 50492  87.9182 330.9908 0001903  89.6940 270.4410 13.18687140224564
ONEWEB-0418             
1 50493U 21132AA  26190.64846850  .00000034  00000+0  52943-4 0  9992
2 50493  87.9185 330.9896 0001947  89.3039 270.8316 13.18685871224623
ONEWEB-0419             
1 50494U 21132AB  26190.66741016  .00000058  00000+0  11550-3 0  9997
2 50494  87.9189 330.9864 0002150  94.6508 265.4870 13.18666140224544
ONEWEB-0420             
1 50495U 21132AC  26190.63173545  .00000063  00000+0  12597-3 0  9999
2 50495  87.9181 330.9939 0001918 104.0707 256.0638 13.18687706224536
ONEWEB-0421             
1 50496U 21132AD  26190.62500949  .00014534  00000+0  36815-1 0  9996
2 50496  87.9186 330.9935 0001306 109.0068 251.1206 13.18608134224573
ONEWEB-0424             
1 50497U 21132AE  26190.66210394  .00012145  00000+0  30760-1 0  9992
2 50497  87.9186 330.9854 0002488 105.2254 254.9154 13.18622331224603
ONEWEB-0426             
1 50498U 21132AF  26190.62079146  .00000017  00000+0  97901-5 0  9996
2 50498  87.9187 330.9851 0001501  74.1664 285.9633 13.18685785224547
ONEWEB-0427             
1 50499U 21132AG  26190.66041784  .00000076  00000+0  16107-3 0  9990
2 50499  87.9191 330.9658 0001876  91.1210 269.0137 13.18686498224576
ONEWEB-0429             
1 50500U 21132AH  26189.88815309  .00000051  00000+0  95420-4 0  9996
2 50500  87.9179 331.1426 0001823 101.4094 258.7244 13.18686812224448
ONEWEB-0430             
1 50501U 21132AJ  26190.63511714  .00000005  00000+0 -21156-4 0  9990
2 50501  87.9181 330.9923 0001967 104.0217 256.1134 13.18688379224581
ONEWEB-0432             
1 50502U 21132AK  26189.93523892 -.00000003  00000+0 -40781-4 0  9996
2 50502  87.9190 331.1175 0002305 100.3148 259.8244 13.18686038224440
ONEWEB-0440             
1 50503U 21132AL  26190.65535221 -.00000002  00000+0 -38408-4 0  9999
2 50503  87.9190 330.9859 0001593 104.6381 255.4927 13.18686519224535
ONEWEB-0450             
1 50504U 21132AM  26190.64874852 -.00000016  00000+0 -72286-4 0  9992
2 50504  87.9180 330.9902 0001910 103.2252 256.9093 13.18686595224566
